0 DELTA 1 DEB
1 07016U 73086G   13281.66272605  .00000188  00000-0  37319-2 0   901
2 07016 101.6902 167.9282 0530069 122.2391 301.2303 11.45277923669120
0 DELTA 1 DEB
1 07016U 73086G   13286.64114817  .00000216  00000-0  41992-2 0   920
2 07016 101.6896 171.9232 0530128 114.3904 307.2901 11.45279543669692
0 DELTA 1 DEB
1 07016U 73086G   13289.19521184  .00000200  00000-0  39379-2 0   932
2 07016 101.6892 173.9727 0530126 110.3680 037.7139 11.45280500669989
0 DELTA 1 DEB
1 07016U 73086G   13291.20455278  .00000181  00000-0  36010-2 0   945
2 07016 101.6887 175.5852 0530116 107.2051 042.2470 11.45281356670213
0 DELTA 1 DEB
1 07016U 73086G   13293.21368079  .00000155  00000-0  31635-2 0   950
2 07016 101.6885 177.1975 0530150 104.0393 045.9101 11.45282078670445
0 DELTA 1 DEB
1 07016U 73086G   13295.30221235  .00000125  00000-0  26568-2 0   961
2 07016 101.6884 178.8733 0530196 100.7480 016.9607 11.45282701670682
